CULTURAL_SPACE_NAME,WEBSITE,PRIMARY_USE,ADDRESS,LOCAL_AREA,OWNERSHIP,LONGITUDE,LATITIUDE
15th Field Artillery Regiment Museum and Archives,www.memorybc.ca/museum-of-15th-field-artillery-regiment,Museum/Gallery,"2025 W 11th Av, Vancouver, BC, V6J 2C7",Kitsilano,Privately Owned,-123.151123,49.261938
221A Artist Run Centre,www.221a.ca/?,Museum/Gallery,"221 E Georgia St, Vancouver, BC, V6A 1Z6",Strathcona,Privately Owned,-123.098796,49.278786
222 E Georgia Studios,http://projectspace.ca/blog/,Artist Studio,"222 E Georgia St, Vancouver, BC, V6A 1Z7",Strathcona,Privately Owned,-123.098829,49.278453
2nd Beach field House,http://vancouver.ca/parks-recreation-culture/second-beach.aspx,Artist Studio," Stanley Park Drive, Vancouver, BC, V6G 3E2",,Park Board/COV,-123.150402,49.295416
Aberthau Mansion /West Point Grey Community Centre,,Community Centre/Hall,"4397 W 2nd Av, Vancouver, BC, V6R 1K4",West Point Grey,City of Vancouver,-123.205213,49.271511
Acme Studios,https://www.facebook.com/ACMEstudiobuilding,Artist Studio,"112 E Hastings St, Vancouver, BC, V6A 4J1",Downtown,Privately Owned,-123.101791,49.281101
AHVA Gallery,http://gallery.ahva.ubc.ca/about/,Museum/Gallery,"6398 University Blvd, Vancouver, BC, ",,Other,-123.2549451,49.2639124
Al Mozaico Flamenco Dance Academy,http://www.mozaicoflamenco.com/,Educational Institution,"828 E Hastings St, Vancouver, BC, V6A 1R6",Strathcona,Privately Owned,-123.0864434,49.2810234
Alliance For Arts And Culture,http://www.allianceforarts.com,Library/Archives,"938 Howe St, Vancouver, BC, V6Z 1N9",Downtown,Privately Owned,-123.1228359,49.2803099
Alliance Française De Vancouver,http://www.alliancefrancaise.ca/,Community Centre/Hall,"6161 Cambie St, Vancouver, BC, V5Z 3B2",Oakridge,Privately Owned,-123.1169818,49.228879
"Anderson Street Space, The",www.bocadellupo.com/?,Rehearsal Studio,"1405 Anderson St, Vancouver, BC, V6H 3R5",Fairview,Privately Owned,-123.134975,49.271656
Anza Club (Australia-New Zealand Association),http://www.anzaclub.org,Performance Space,"3 W 8th Av, Vancouver, BC, V5Y 1M8",Mount Pleasant,Non-Profit,-123.105108,49.263974
"Arc, The",http://arcgallery.ca/?page_id=11,Artist Studio,"1701 Powell St, Vancouver, BC, V5L 5C9",Grandview-Woodland,Privately Owned,-123.069973,49.284217
Architectural Institute of BC Gallery,www.aibc.ca,Museum/Gallery,"440 Cambie St, Vancouver, BC, V6B 2N5",Downtown,,-123.1095005,49.2817199
Art Beatus,www.artbeatus.com,Museum/Gallery,"808 Nelson St, Vancouver, BC, V6Z 2H2",Downtown,Privately Owned,-123.1249139,49.2800409
Art Club/Bard On Beach Production Centre Theatre,,Workshop,"162 W 1st Av, Vancouver, BC, V5Y 1A4",Mount Pleasant,City of Vancouver,-123.108535,49.2702275
Art Club/Bard On Beach Production Centre Theatre,,Theatre,"162 W 1st Av, Vancouver, BC, V5Y 1A4",Mount Pleasant,City of Vancouver,-123.108576,49.270223
Art Emporium,http://www.theartemporium.ca,Museum/Gallery,"2928 Granville St, Vancouver, BC, V6H 3J7",Fairview,Privately Owned,-123.1383072,49.2593906
Art Works Gallery,http://artworksbc.com/,Museum/Gallery,"225 Smithe St, Vancouver, BC, V6B 4X7",Downtown,Privately Owned,-123.1165781,49.2775077
Arts Club Theatre - Backstage Lounge,www.thebackstagelounge.com,Bar/Lounge/Cabaret,"1585 Johnston St, Vancouver, BC, V6H 3R9",Fairview,Government,-123.134363,49.272102
Arts Club Theatre - Granville Island Stage,www.artsclub.com,Theatre,"1585 Johnston St, Vancouver, BC, V6H 3R9",Fairview,Government,-123.134362,49.272124
Arts Club Theatre - Production Centre,,Workshop,"1377 Cartwright St, Vancouver, BC, V6H 3R7",Fairview,Government,-123.1347122,49.2700047
Arts Club Theatre Revue Stage,http://www.artsclub.com,Theatre,"1601 Johnston St, Vancouver, BC, V6H 3R9",Fairview,Government,-123.13467,49.272235
Arts Club Theatre -Stanley Industrial Alliance Stage,http://www.artsclub.com,Theatre,"2750 Granville St, Vancouver, BC, V6H 3J3",Fairview,Non-Profit,-123.1382118,49.261346
Arts Factory,http://www.artsfactorysociety.ca/,Artist Studio,"281 Industrial, Vancouver, BC, V5A 2P2",Strathcona,City of Vancouver,-123.098517,49.270111
Arts Umbrella,www.artsumbrella.com,Educational Institution,"1286 Cartwright St, Vancouver, BC, V6H 3R8",Fairview,Government,-123.133395,49.269611
Arts Umbrella - E 7th,http://www.artsumbrella.com/contact,Educational Institution,"77 E 7th Av, Vancouver, BC, V5T 1M4",Mount Pleasant,Other,-123.1033467,49.2648965
Artspeak Gallery,www.artspeak.ca/?,Museum/Gallery,"233 Carrall St, Vancouver, BC, V6B 2J2",Downtown,Non-Profit,-123.104299,49.282941
Artstarts In Schools,www.artstarts.com,Museum/Gallery,"808 Richards St, Vancouver, BC, V6B 3A7",Downtown,Privately Owned,-123.1179808,49.2799985
Astorino's Hall,http://www.safeamp.org/events/astorinos.html,Performance Space,"1739 Venables St, Vancouver, BC, V5L 2H3",Grandview-Woodland,Privately Owned,-123.0698555,49.2769146
Audain Gallery,https://www.sfu.ca/galleries/audain-gallery.html,Museum/Gallery,"149 W Hastings St, Vancouver, BC, V6B 1H4",Downtown,Other,-123.108715,49.282395
Ayden Gallery,www.aydengallery.com?,Museum/Gallery,"88 W Pender St, Vancouver, BC, V6B 6N9",Downtown,Privately Owned,-123.1071802,49.2809655
Back Gallery Project,http://www.backgalleryproject.com/,Museum/Gallery,"602 E Hastings St, Vancouver, BC, V6A 1R1",Strathcona,Privately Owned,-123.0914,49.281137
Backspace - Blake Williams,www.blakewilliams.ca,Artist Studio,"1318 Grant St, Vancouver, BC, V5L 2X5",Grandview-Woodland,Privately Owned,-123.076821,49.27146
BAF Studio,http://www.burrardarts.org/about.html,Museum/Gallery,"108 E Broadway Av, Vancouver, BC, V5T 1V9",Mount Pleasant,Privately Owned,-123.102505,49.262669
BAF Studio,http://www.burrardarts.org/about.html,Artist Studio,"108 E Broadway Av, Vancouver, BC, V5T 1V9",Mount Pleasant,Privately Owned,-123.102565,49.2626666
Basic Inquiry,http://www.lifedrawing.org/index.html,Museum/Gallery,"1011 Main St, Vancouver, BC, V6A 4L4",Downtown,Privately Owned,-123.1000334,49.2758184
Bau-Xi Gallery,www.bau-xi.com,Museum/Gallery,"3045 Granville St, Vancouver, BC, V6H 3J9",Fairview,Privately Owned,-123.1391799,49.258496
BC Place Stadium,www.bcplacestadium.com,Arena/Stadium,"777 Pacific Blvd, Vancouver, BC, V6B 4Y8",Downtown,Privately Owned,-123.110433,49.276156
BC Sports Hall of Fame Museum,www.bcsportshalloffame.com,Museum/Gallery,"777 Pacific Blvd S, Vancouver, BC, V6B 4Y8",Downtown,Government,-123.110438,49.27619
Beaty Biodiversity Museum,http://www.beatymuseum.ubc.ca/about,Museum/Gallery,"2212 Main Mall, Vancouver, BC, V6T 1Z4",,Other,-123.251485,49.2634318
"Beaumont Studios, The",http://www.thebeaumontstudios.com/,Artist Studio,"316 W 5th Av, Vancouver, BC, V5Y 1J5",Mount Pleasant,Privately Owned,-123.1112172,49.2665809
Bill Reid Gallery,www.billreidgallery.ca,Museum/Gallery,"639 Hornby St, Vancouver, BC, V6C 2G3",Downtown,Privately Owned,-123.119819,49.284308
"Biltmore, The",www.biltmorecabaret.com?,Bar/Lounge/Cabaret,"2755 Prince Edward St, Vancouver, BC, V5T 0A9",Mount Pleasant,Privately Owned,-123.0962422,49.2603045
Bloedel Conservatory,http://vancouver.ca/parks-recreation-culture/bloedel-conservatory.aspx,Garden/Aquarium/Science Centre,"4600 Cambie St, Vancouver, BC, V5Y 2M5",Riley Park,Park Board/COV,-123.113759,49.242077
Blue Wave Productions,www.bluewaveproductions.com/?,Film/Recording Studio,"34 W 8th Av, Vancouver, BC, V5Y 1M7",Mount Pleasant,Privately Owned,-123.105751,49.263547
Britannia Community Services Centre Society,www.britanniacentre.org,Community Centre/Hall,"1661 Napier St, Vancouver, BC, V5L 4X4",Grandview-Woodland,City of Vancouver,-123.0737717,49.2756486
Bruhanski Acting Studio,http://bruhanski.com/,Educational Institution,"164 E 11th Av, Vancouver, BC, V5T 2C2",Mount Pleasant,Privately Owned,-123.1021231,49.2611004
Burrard Marina Field House,http://vancouver.ca/parks-recreation-culture/burrard-marina-fieldhouse.aspx,Artist Studio,"1655 Whyte Av, Vancouver, BC, V6J 1A9",Kitsilano,Park Board/COV,-123.1402263,49.2756879
Burrardview Park Fieldhouse,https://cfapp.vancouver.ca/parkfinder_wa/index.cfm?fuseaction=FAC.ParkDetails&park_id=67,Artist Studio,"650 North Penticton st, Vancouver, BC, V6G 1Z4",Hastings-Sunrise,Park Board/COV,-123.0519037,49.2912065
Café Deux Soleils,www.cafedeuxsoleils.com/?,Café/Restaurant,"2096 Commercial Dr, Vancouver, BC, V5N 4B2",Grandview-Woodland,Privately Owned,-123.0693229,49.2659754
Cambrian Hall,http://www.welshsociety.com/Lab5/,Community Centre/Hall,"215 E 17th Av, Vancouver, BC, V5V 1A6",Riley Park,Privately Owned,-123.1005648,49.2559391
Canadian Memorial United Church and Centre for Peace,http://canadianmemorial.org/,Place of Worship,"1825 W 16th Av, Vancouver, BC, V6J 2M3",Kitsilano,Other,-123.1468654,49.2574655
Canadian Music Centre (Bc Region),http://www.musiccentre.ca/regions/british-columbia?field_event_region_value_many_to_one=3,Library/Archives,"837 Davie St, Vancouver, BC, V6Z 1B7",Downtown,Privately Owned,-123.127484,49.278055
Carnegie Centre,http://vancouver.ca/parks-recreation-culture/carnegie-community-centre.aspx,Performance Space,"401 Main St, Vancouver, BC, V6A 2T7",Downtown,City of Vancouver,-123.1001272,49.281052
Carousel Theatre for Young People,www.carouseltheatre.ca,Rehearsal Studio,"1411 Cartwright St, Vancouver, BC, V6H 3R7",Fairview,Government,-123.13523,49.270336
Catriona Jeffries Gallery,www.catrionajeffries.com?,Museum/Gallery,"274 E 1st Av, Vancouver, BC, V5T 1A6",Strathcona,Privately Owned,-123.0980394,49.2687198
CBC Outdoor Stage,http://www.cbc.ca,Plaza/Park/Band Shell,"700 Hamilton, Vancouver, BC, V6B 2R5",Downtown,Government,-123.114669,49.279299
CBC Studio 700,http://www.cbc.ca/bc/communityspaces/studio700.html#igImgId_11630,Performance Space,"700 Hamilton, Vancouver, BC, V6B 2R5",Downtown,Government,-123.114496,49.279079
Center for Digital Media,www.gnwc.ca,Educational Institution,"555 Great Northern Way, Vancouver, BC, V5T 1E2",Strathcona,Government,-123.089605,49.267044
"Centre A, Centre For Contemporary Asian Art",http://centrea.org,Museum/Gallery,"229 E Georgia St, Vancouver, BC, V6A 1Z6",Strathcona,Privately Owned,-123.098671,49.278676
Ceperley Meadow,,Plaza/Park/Band Shell," , Vancouver, BC, ",,City of Vancouver,-123.148518,49.293772
Chali-Rosso Gallery,www.chalirosso.com,Museum/Gallery,"2250 Granville St, Vancouver, BC, V6H 4H7",Fairview,Privately Owned,-123.1384021,49.2657529
Champlain Heights Community Centre,https://vancouver.ca/parks-recreation-culture/champlain-heights-community-centre.aspx,Community Centre/Hall,"3350 Maquinna Dr, Vancouver, BC, V5S 4C6",Killarney,Park Board/COV,-123.0320663,49.21444806
"Chan Centre for The Performing Art, The- Concert Hall",http://www.chancentre.com,Theatre,"6265 Crescent Rd, Vancouver, BC, V6T 1Z1",,Government,-123.255108,49.269523
"Chan Centre For The Performing Art, The- Telus Studio Theatre",http://www.chancentre.com,Theatre,"6265 Crescent Rd, Vancouver, BC, V6T 1Z1",,Government,-123.255184,49.269509
"Chapel Arts, The",www.chapelarts.com?,Performance Space,"304 Dunlevy St, Vancouver, BC, V6A 3Y4",Strathcona,Privately Owned,-123.0953265,49.2821671
Charles H. Scott Gallery,www.chscott.ecuad.ca?,Museum/Gallery,"1399 Johnston St, Vancouver, BC, V6H 2R9",Fairview,Government,-123.132876,49.270485
Chinese Cultural Centre,www.cccvan.com?,Community Centre/Hall,"50 E Pender St, Vancouver, BC, V6A 3V6",Downtown,City of Vancouver,-123.1032,49.280315
Chinese Cultural Centre Museum and Archives,,Museum/Gallery,"555 Columbia St, Vancouver, BC, V6A 4H5",Downtown,City of Vancouver,-123.102448,49.279894
Christ Church Cathedral,http://www.cathedral.vancouver.bc.ca/,Place of Worship,"690 Burrard St, Vancouver, BC, V6C 2L1",Downtown,Other,-123.1203334,49.2844929
Cineworks,http://www.cineworks.ca,Film/Recording Studio,"1131 Howe St, Vancouver, BC, V6Z 2L7",Downtown,City of Vancouver,-123.126284,49.278543
Circle Craft Co-Operative Shop & Gallery,www.circlecraft.net/,Museum/Gallery,"1666 Johnston St, Vancouver, BC, V6H 3S2",Fairview,Government,-123.135541,49.272369
City of Vancouver Archives,www.vancouver.cayour-government/city-of-vancouver-archives.aspx?,Library/Archives,"1150 Chestnut St, Vancouver, BC, V6J 3J9",Kitsilano,City of Vancouver,-123.142663,49.276084
City of Vancouver Artist Studio,https://vancouver.ca/people-programs/artist-live-work-studio-program.aspx,Artist Studio w/Residence,"272 E 4th Av, Vancouver, BC, V5T 4S2",Mount Pleasant,City of Vancouver,-123.0990734,49.2670319
City of Vancouver Artist Studio,https://vancouver.ca/people-programs/artist-live-work-studio-program.aspx,Artist Studio w/Residence,"428 W 8th Av, Vancouver, BC, V5Y 1N9",Mount Pleasant,Privately Owned,-123.1134394,49.2636714
City of Vancouver Artist Studio,https://vancouver.ca/people-programs/artist-live-work-studio-program.aspx,Artist Studio w/Residence,"485 W 8th Av, Vancouver, BC, V5Y 3Z5",Mount Pleasant,Privately Owned,-123.1138,49.2641907
City of Vancouver Artist Studio,https://vancouver.ca/people-programs/artist-live-work-studio-program.aspx,Artist Studio w/Residence,"1202 E Pender St, Vancouver, BC, V6A 1W8",Strathcona,City of Vancouver,-123.0789337,49.2802238
City of Vancouver Artist Studio,https://vancouver.ca/people-programs/artist-live-work-studio-program.aspx,Artist Studio,"2050 Scotia St, Vancouver, BC, V5T 4T1",Mount Pleasant,City of Vancouver,-123.0982208,49.2667885
Clayzone Ceramics Gallery,www.clayzoneceramics.com,Educational Institution,"661 E 15th Av, Vancouver, BC, ",Mount Pleasant,Privately Owned,-123.08964,49.257179
Coal Harbour Community Centre,http://vancouver.ca/parks-recreation-culture/coal-harbour-community-centre.aspx,Community Centre/Hall,"480 Broughton St, Vancouver, BC, V6G 3H4",Downtown,Park Board/COV,-123.1258851,49.2901652
Coastal Peoples Fine Arts Gallery Gastown,http://www.coastalpeoples.com,Museum/Gallery,"312 Water St, Vancouver, BC, V6B 1B6",Downtown,Privately Owned,-123.109198,49.2843539
Coastal Peoples Fine Arts Gallery Yaletown,http://www.coastalpeoples.com,Museum/Gallery,"1024 Mainland St, Vancouver, BC, V6B 2T4",Downtown,Privately Owned,-123.119591,49.2762084
Colbourne House/ Marpole Museum,http://www.marpolehistorical.ca?,Museum/Gallery,"8743 Sw Marine Dr, Vancouver, BC, V6P 6A5",Marpole,City of Vancouver,-123.1423354,49.2064788
Collingwood Neighborhood House,http://www.cnh.bc.ca,Community Centre/Hall,"5288 Joyce St, Vancouver, BC, V5R 6C9",Renfrew-Collingwood,City of Vancouver,-123.0328014,49.2366135
Commodore Ballroom,http://www.commodoreballroom.ca?,Bar/Lounge/Cabaret,"868 Granville St, Vancouver, BC, V6Z 1K3",Downtown,Privately Owned,-123.1208909,49.2806189
Core Live/Work Studios,www.chf.bc.ca,Artist Studio w/Residence,"275 Alexander St, Vancouver, BC, V6A 1C2",Strathcona,City of Vancouver,-123.0985607,49.2841198
Crafthouse Gallery,www.craftcouncilbc.ca,Museum/Gallery,"1386 Cartwright St, Vancouver, BC, V6H 3R8",Fairview,Government,-123.13479,49.269837
Creekside Community Centre,http://vancouver.ca/parks-recreation-culture/creekside-community-recreation-centre.aspx,Community Centre/Hall,"1 Athletes Way, Vancouver, BC, V5Y 0B1",Mount Pleasant,Park Board/COV,-123.1057142,49.2717878
Creekside Park,,Plaza/Park/Band Shell,"1455 Quebec St, Vancouver, BC, V6A 3Z7",Downtown,City of Vancouver,-123.10319,49.274159
Croatian Cultural Centre,www.croatiancentre.com,Community Centre/Hall,"3250 Commercial Dr, Vancouver, BC, V5N 4E4",Kensington-Cedar Cottage,Non-Profit,-123.06845,49.255421
Crystal Ballroom,www.crystalballrom.ca,Educational Institution,"768 Sw Marine Dr, Vancouver, BC, V6P 5Y7",Marpole,Privately Owned,-123.123043,49.207191
David Lam Multi-Purpose Hall,,Community Centre/Hall,"50 E Pender St, Vancouver, BC, V6A 3V6",Downtown,City of Vancouver,-123.103387,49.280254
David Lam Park,,Plaza/Park/Band Shell,"1300 Pacific Blvd, Vancouver, BC, V6Z 2V1",Downtown,City of Vancouver,-123.1241736,49.2724252
Dear Human Studio and Workshop space,http://www.dearhuman.ca/about/,Artist Studio,"141 W 7th Av, Vancouver, BC, V5Y 1L8",Mount Pleasant,Privately Owned,-123.1078497,49.2647531
Djavad Mowafaghian Cinema,http://www.sfu.ca/mecs/facilities/goldcorp-centre-for-the-arts/meeting-rooms/djavadmowafaghian.html,Cinema,"149 W Hastings St, Vancouver, BC, V6B 1H4",Downtown,Other,-123.108528,49.282364
Doctor Vigari Gallery,www.doctorvigarigallery.com,Museum/Gallery,"1816 Commercial Dr, Vancouver, BC, V5N 4A3",Grandview-Woodland,Privately Owned,-123.0692806,49.2683622
Dorothy Somerset Studio Theatre,,Theatre,"6361 University Blvd, Vancouver, BC, V6T 1Z2",,Government,-123.2543722,49.2643788
Douglas Park Community Centre,https://vancouver.ca/parks-recreation-culture/douglas-park-community-centre.aspx,Community Centre/Hall,"801 W 22nd Av, Vancouver, BC, V5Z 1Z8",South Cambie,Park Board/COV,-123.1212774,49.25291725
Douglas Reynolds Gallery,www.douglasreynoldsgallery.com,Museum/Gallery,"2335 Granville St, Vancouver, BC, V6H 3G4",Fairview,Privately Owned,-123.1385998,49.2648423
Douglas Udell Gallery,www.douglasudellgallery.com?,Museum/Gallery,"1558 W 6th Av, Vancouver, BC, V6J 1R2",Fairview,Privately Owned,-123.1399725,49.2661804
Dr. Sun Yat-Sen Classical Chinese Garden,www.vancouverchinesegarden.com?,Garden/Aquarium/Science Centre,"578 Carrall St, Vancouver, BC, V6B 5K2",Downtown,City of Vancouver,-123.103361,49.279776
Dunbar Community Centre,http://dunbarcentre.org/dunbar/,Community Centre/Hall,"4747 Dunbar St, Vancouver, BC, V6S 2H2",Dunbar-Southlands,Park Board/COV,-123.188252,49.24281543
Dundarave Print Workshop & Gallery,www.dundaraveprintworkshop.com,Museum/Gallery,"1640 Johnston St, Vancouver, BC, V6H 3S2",Fairview,Privately Owned,-123.1353489,49.2721848
Dynamo Arts Association,www.dynamoarts.tumblr.com?,Museum/Gallery,"30 E 6th Ave, Vancouver, BC, V5T 1J4",Mount Pleasant,Privately Owned,-123.1040486,49.2653017
Eagle Spirit Gallery,www.eaglespiritgallery.com,Museum/Gallery,"1803 Maritime Mews, Vancouver, BC, V6H 3W7",Fairview,Privately Owned,-123.136077,49.2710507
"Earl Kraul & Grant Strate Studio, The",www.thedancecentre.ca?,Rehearsal Studio,"677 Davie St, Vancouver, BC, V6B 2G6",Downtown,Privately Owned,-123.125738,49.277084
East Van Studios,http://eastvanstudios.wordpress.com/,Film/Recording Studio,"870 E Cordova St, Vancouver, BC, V6A 1M4",Strathcona,Privately Owned,-123.0854969,49.2817549
Edam Performing Arts Society,www.edamdance.org?,Rehearsal Studio,"303 E 8th Av, Vancouver, BC, V5T 1S1",Mount Pleasant,Privately Owned,-123.098697,49.263935
"Edge, The",,Artist Studio w/Residence,"289 Alexander St, Vancouver, BC, V6A 4H6",Strathcona,Privately Owned,-123.09843,49.2844308
Electric Owl,www.electricowl.ca,Bar/Lounge/Cabaret,"928 Main St, Vancouver, BC, V6A 2W1",Strathcona,Privately Owned,-123.0997603,49.2762334
Elissa Cristall Galleries,http://cristallgallery.com,Museum/Gallery,"2239 Granville St, Vancouver, BC, V6H 3G1",Fairview,Privately Owned,-123.1385822,49.2655257
Elm Park Field House,http://vancouver.ca/parks-recreation-culture/elm-park-fieldhouse.aspx,Artist Studio,"5800 Elm St, Vancouver, BC, V6N 1A3",Kerrisdale,Park Board/COV,-123.1641351,49.2341311
Emily Carr Institute of Art + Design,www.ecuad.ca,Educational Institution,"1399 Johnston St, Vancouver, BC, V6H 2R9",Fairview,Government,-123.132857,49.270461
Emily Carr Institute of Art + Design,,Educational Institution,"1535 W 3rd Av, Vancouver, BC, V6J 1J8",Fairview,,-123.1396911,49.2690422
Emily Carr Institute of Art + Design,,Educational Institution,"1706 W 1st Av, Vancouver, BC, V6J 0E4",Fairview,,-123.1432746,49.2706035
Emily Carr Institute of Art + Design 1612 Gallery,,Museum/Gallery,"1612 W 3rd Av, Vancouver, BC, V6J 1K2",Fairview,,-123.1411548,49.2688004
Equinox Gallery,www.equinoxgallery.com,Museum/Gallery,"525 Great Northern Way, Vancouver, BC, V5T 1E1",Strathcona,Privately Owned,-123.09226,49.267609
Falaise Park Field House,http://vancouver.ca/parks-recreation-culture/falaise-park-fieldhouse.aspx,Artist Studio,"3434 Falaise Av, Vancouver, BC, V5M 4C1",Renfrew-Collingwood,Park Board/COV,-123.03,49.2551
False Creek Community Centre,http://www.falsecreekcc.ca/,Community Centre/Hall,"1318 Cartwright St, Vancouver, BC, V6H 3R8",Fairview,Park Board/COV,-123.1340203,49.26939707
FanClub,http://vancouverfanclub.ca/,Performance Space,"1050 Granville St, Vancouver, BC, V6Z 1L2",Downtown,Privately Owned,-123.1235587,49.2784977
"Faris Family Studio, The",,Theatre,"677 Davie St, Vancouver, BC, V6B 2G6",Downtown,Non-Profit,-123.125711,49.277065
Federation Gallery,http://artists.ca/federation_gallery,Museum/Gallery,"1241 Cartwright St, Vancouver, BC, V6H 4B7",Fairview,Privately Owned,-123.13225,49.269582
Fei & Milton Wong Experimental Theatre,http://www.gvpta.ca/vancouver-theatre-guide/venue/fei-and-milton-wong-experimental-theatre-goldcorp-centre-for-the-arts/,Theatre,"149 W Hastings St, Vancouver, BC, V6B 1H4",Downtown,Other,-123.10859,49.282402
FIELD Contemporary,www.field-contemporary.com,Museum/Gallery,"17 W Broadway, Vancouver, BC, V5Y 1P1",Mount Pleasant,Privately Owned,-123.1058083,49.2630895
Firehall Arts Centre,www.firehallartscentre.ca?,Theatre,"280 E Cordova St, Vancouver, BC, V6A 1L3",Strathcona,City of Vancouver,-123.097921,49.282083
Forge and Form,www.forgeandform.com,Artist Studio,"1334 Cartwright St, Vancouver, BC, V6H 3R8",Fairview,Government,-123.1343033,49.2698934
Fortune Sound Club,http://www.fortunesoundclub.com/,Performance Space,"147 E Pender St, Vancouver, BC, V6A 1T5",Downtown,Privately Owned,-123.1008605,49.2806621
Fox Cabaret,http://www.foxcabaret.com/,Bar/Lounge/Cabaret,"2321 Main St, Vancouver, BC, V5T 3C9",Mount Pleasant,Privately Owned,-123.1014108,49.2642396
Frederic Wood Theatre,http://www.theatre.ubc.ca/facilities_images.shtml,Theatre,"6354 Crescent Rd, Vancouver, BC, V6T 1Z2",,Government,-123.2572691,49.268215
Gallery 295,http://gallery295.com/295/,Museum/Gallery,"295 E 2nd Ave, Vancouver, BC, V5T 1B8",Strathcona,Privately Owned,-123.0981191,49.2680645
Gallery Gachet,www.gachet.org?,Museum/Gallery,"88 E Cordova St, Vancouver, BC, V6A 1K2",Downtown,Privately Owned,-123.102645,49.2821
Gallery Jones,www.galleryjones.com?,Museum/Gallery,"1725 W 3rd Av, Vancouver, BC, V6J 1K7",Fairview,Privately Owned,-123.1438197,49.2689012
Gallery of BC Ceramics,http://www.bcpotters.com/Gallery/index.php,Museum/Gallery,"1359 Cartwright St, Vancouver, BC, V6H 3R7",Fairview,Non-Profit,-123.134283,49.270046
Gam Gallery,http://gamgallery.com/contact/,Museum/Gallery,"110 E Hastings St, Vancouver, BC, V6N 1N4",Downtown,,-123.101858,49.2813343
GMS Observatory,http://www.spacecentre.ca/gms,Garden/Aquarium/Science Centre,"1100 Chestnut St, Vancouver, BC, V6J 3J9",Kitsilano,City of Vancouver,-123.144436,49.276261
Goh Ballet Academy,www.gohballet.com,Educational Institution,"2345 Main St, Vancouver, BC, V5T 3C9",Mount Pleasant,Privately Owned,-123.101297,49.263875
Goldcorp Centre for the Arts SFU,www.sfu.ca,Educational Institution,"149 W Hastings St, Vancouver, BC, V6B 1H4",Downtown,Other,-123.108696,49.28243
Granville Fine Arts,www.granvillefineart.com?,Museum/Gallery,"2447 Granville St, Vancouver, BC, V6H 3G5",Fairview,Privately Owned,-123.1386339,49.2638926
Granville Island,,Plaza/Park/Band Shell," , Vancouver, BC, ",Fairview,Government,-123.134845,49.269463
Granville Island Gallery,www.granvilleislandgallery.com?,Museum/Gallery,"1494 Old Bridge St, Vancouver, BC, V6H 3S6 ",Fairview,Government,-123.134769,49.270213
Granville Street/ Entertainment District,,Plaza/Park/Band Shell," , Vancouver, BC, ",Downtown,City of Vancouver,-123.11966,49.281457
Great Northern Way Scene Shop,www.gnwshop.ca?,Workshop,"281 Industrial, Vancouver, BC, V5A 2P2",Strathcona,City of Vancouver,-123.098432,49.270087
Green Thumb Theatre for Young People- Studio 1,www.greenthumb.bc.ca,Rehearsal Studio,"5560 Mckinnon St, Vancouver, BC, V5R 0B6",Renfrew-Collingwood,Privately Owned,-123.038613,49.234069
Green Thumb Theatre For Young People- Studio 2,,Rehearsal Studio,"5560 Mckinnon St, Vancouver, BC, V5R 0B6",Renfrew-Collingwood,Privately Owned,-123.038603,49.23408
Grunt Gallery,www.grunt.ca?,Museum/Gallery,"350 E 2nd Av, Vancouver, BC, V5T 4R8",Mount Pleasant,Non-Profit,-123.09715,49.26676
H.R. Macmillan Space Centre,http://www.spacecentre.ca/,Garden/Aquarium/Science Centre,"1100 Chestnut St, Vancouver, BC, V6J 3J9",Kitsilano,City of Vancouver,-123.144299,49.276361
Hadden Park Field House,http://vancouver.ca/parks-recreation-culture/hadden-park-fieldhouse.aspx,Artist Studio,"1015 Maple St, Vancouver, BC, V6J 3R4",Kitsilano,Park Board/COV,-123.1500693,49.2770875
Harbour Dance Center,http://www.harbourdance.com/,Rehearsal Studio,"927 Granville St, Vancouver, BC, V6Z 1L3",Downtown,Privately Owned,-123.1221484,49.2799092
Harrison Galleries,www.harrisongalleries.com,Museum/Gallery,"901 Homer St, Vancouver, BC, V6B 2W6",Downtown,Privately Owned,-123.1184779,49.2784569
Hastings Community Centre,https://vancouver.ca/parks-recreation-culture/hastings-community-centre.aspx,Community Centre/Hall,"3096 E Hastings St, Vancouver, BC, V5K 2A3",Hastings-Sunrise,Park Board/COV,-123.039369,49.280678
Hastings Mill Store Museum,www.hastings-mill-museum.ca?,Museum/Gallery,"1575 Alma St, Vancouver, BC, V6R 3P3",West Point Grey,City of Vancouver,-123.185988,49.272817
Havana Gallery,www.havanarestaurant.ca,Museum/Gallery,"1212 Commercial Dr, Vancouver, BC, V5L 3X4",Grandview-Woodland,Privately Owned,-123.069421,49.273662
Havana Theatre,www.havanarestaurant.ca,Theatre,"1212 Commercial Dr, Vancouver, BC, V5L 3X4",Grandview-Woodland,Privately Owned,-123.0694828,49.2737114
Haywood Bandstand,,Plaza/Park/Band Shell,"1755 Beach Av, Vancouver, BC, ",West End,Park Board/COV,-123.141944,49.285278
Heffel Gallery Ltd,www.heffel.com,Museum/Gallery,"2247 Granville St, Vancouver, BC, V6H 3G1",Fairview,Privately Owned,-123.1389124,49.2654685
Heritage Hall,www.heritagehall.bc.ca,Community Centre/Hall,"3102 Main St, Vancouver, BC, V5T 3G7",Mount Pleasant,City of Vancouver,-123.100944,49.257332
Hillcrest Centre,http://vancouver.ca/parks-recreation-culture/hillcrest-centre.aspx,Community Centre/Hall,"4575 Clancy Loranger Way, Vancouver, BC, V5Y 2M4",Riley Park,Park Board/COV,-123.1042916,49.24169227
Hill's Native Art,www.hillsnativeart.com,Museum/Gallery,"165 Water St, Vancouver, BC, V6B 1A7",Downtown,Privately Owned,-123.1081528,49.2844721
Holy Rosary Cathedral,www.hrc.rcav.org,Place of Worship,"646 Richards St, Vancouver, BC, V6B 3A3",Downtown,Other,-123.1152408,49.2818067
Holy Trinity Ukrainian Orthodox Cathedral,http://uocvancouver.com/,Place of Worship,"154 E 10th Av, Vancouver, BC, V5T 1Z4",Mount Pleasant,Other,-123.1021053,49.2617605
Hot Art Wet City,http://hotartwetcity.com/,Museum/Gallery,"2206 Main St, Vancouver, BC, V5T 3C7",Mount Pleasant,Privately Owned,-123.1007282,49.2653981
Ian Tan Gallery,www.iantangallery.com?,Museum/Gallery,"2202 Granville St, Vancouver, BC, V6H 4H7",Fairview,Privately Owned,-123.1383868,49.2661646
IL Centro-Italian Cultural Centre,www.italianculturalcentre.ca?,Community Centre/Hall,"3075 Slocan St, Vancouver, BC, V5M 3E4",Renfrew-Collingwood,Non-Profit,-123.049576,49.256761
"Improv Centre, The",www.vtsl.com,Performance Space,"1502 Duranleau St, Vancouver, BC, V6H 3S4",Fairview,Government,-123.136248,49.270764
Interurban Gallery,,Museum/Gallery,"1 E Hastings St, Vancouver, BC, V6A 1M9",Downtown,Privately Owned,-123.1043161,49.2815282
Inuit Gallery of Vancouver,www.inuit.com,Museum/Gallery,"206 Cambie St, Vancouver, BC, V6B 2M9",Downtown,Privately Owned,-123.1088083,49.2842455
"Ironworks Studios, The",www.theironworks.ca,Performance Space,"235 Alexander St, Vancouver, BC, V6A 1C2",Strathcona,Privately Owned,-123.099046,49.284153
Jack Poole Plaza,http://www.vancouverconventioncentre.com/jack-poole-plaza/,Plaza/Park/Band Shell," , Vancouver, BC, ",Downtown,Government,-123.118259,49.289387
James Tan Gallery,http://www.jamestan.com/home.htm,Museum/Gallery,"437 Columbia St, Vancouver, BC, V6A 2R9",Downtown,Privately Owned,-123.1023067,49.2810853
Jennifer Kostuik Gallery,www.kostuikgallery.com?,Museum/Gallery,"1070 Homer St, Vancouver, BC, V6B 2W9",Downtown,Privately Owned,-123.1211143,49.2766268
Jericho Arts Centre,www.jerichoartscentre.com?,Theatre,"1675 Discovery St, Vancouver, BC, V6R 2K5",West Point Grey,Park Board/COV,-123.202893,49.272369
Jericho Beach,,Plaza/Park/Band Shell,"3941 Point Grey Rd., Vancouver, BC, V6R 1B5",West Point Grey,City of Vancouver,-123.1912389,49.2711948
Jewish Community Centre,www.jewishmuseum.ca?,Community Centre/Hall,"950 W 41st Av, Vancouver, BC, V5Z 2N7",Oakridge,Non-Profit,-123.125991,49.233444
John Hendry Park (Trout Lake),,Plaza/Park/Band Shell,"3300 Victoria Dr, Vancouver, BC, V5N 4L9",Kensington-Cedar Cottage,Park Board/COV,-123.06391,49.25716
John Oliver Secondary,http://go.vsb.bc.ca/schools/johnoliver/Pages/default.aspx,Educational Institution,"530 E 41st Av, Vancouver, BC, V5W 1P3",Sunset,Government,-123.0926825,49.2319794
Joy Kogawa House,http://www.kogawahouse.com,Artist Studio,"1450 W 64th Av, Vancouver, BC, V6P 2N4",Marpole,Non-Profit,-123.1384686,49.2128612
Judith R Marcuse Studio,,Rehearsal Studio,"677 Davie St, Vancouver, BC, V6B 2G6",Downtown,Privately Owned,-123.125727,49.277074
Kafka's Coffee and Tea,www.kafkascoffee.ca,Café/Restaurant,"2525 Main St, Vancouver, BC, V5T 3E5",Mount Pleasant,Privately Owned,-123.101422,49.262355
Karen Flamenco Dance Soc.,http://karenflamenco.com,Rehearsal Studio,"60 W 7th Av, Vancouver, BC, V5Y 1L6",Mount Pleasant,Privately Owned,-123.106533,49.2644359
Kensington Community Centre,http://vancouver.ca/parks-recreation-culture/kensington-community-centre.aspx,Community Centre/Hall,"5175 Dumfries St, Vancouver, BC, V5P 3A2",Kensington-Cedar Cottage,Park Board/COV,-123.0754802,49.23848156
Kerrisdale Community Centre,http://vancouver.ca/parks-recreation-culture/kerrisdale-community-centre.aspx,Community Centre/Hall,"5851 West Blvd, Vancouver, BC, V6M 3W9",Kerrisdale,Park Board/COV,-123.1570929,49.23318536
Killarney Community Centre,https://vancouver.ca/parks-recreation-culture/killarney-community-centre.aspx,Community Centre/Hall,"6260 Killarney St, Vancouver, BC, V5S 2X7",Killarney,Park Board/COV,-123.0443906,49.22740992
Kitsilano Showboat,http://www.kitsilanoshowboat.com/showboat.html,Plaza/Park/Band Shell,"2300 Cornwall Av, Vancouver, BC, V6K 1B7",Kitsilano,City of Vancouver,-123.1573621,49.2725956
Kitsilano War Memorial Community Centre,http://vancouver.ca/parks-recreation-culture/kitsilano-war-memorial-community-centre.aspx,Community Centre/Hall,"2690 Larch St, Vancouver, BC, V6K 4K9",Kitsilano,Park Board/COV,-123.1601056,49.26205534
La Maison De La Francophonie De Vancouver,www.lamaison.bc.ca,Community Centre/Hall,"1555 W 7th Av, Vancouver, BC, V6J 1S1",Fairview,Privately Owned,-123.14003,49.26567
Labyrinth Gallery,http://labyrinthgallery.org/,Museum/Gallery,"112 E Hastings St, Vancouver, BC, V6A 4J1",Downtown,Privately Owned,-123.1017894,49.2810651
"Landing Dance Centre, The",www.thelandingdance.com,Educational Institution,"270 Sw Marine Dr, Vancouver, BC, V5X 2R5",Marpole,Privately Owned,-123.112563,49.211381
Langara College - School of Creative And Applied Arts,,Educational Institution,"100 W 49th Av, Vancouver, BC, V5Y 2Z6",Oakridge,Government,-123.108305,49.225191
Lattimer Gallery,www.lattimergallery.com?,Museum/Gallery,"1590 W 2nd Av, Vancouver, BC, V6J 1H2",Fairview,Privately Owned,-123.1406592,49.2696829
Little Mountain Gallery,www.littlemountaingallery.com,Museum/Gallery,"195 E 26th Av, Vancouver, BC, V5V 2G8",Riley Park,Privately Owned,-123.1014023,49.2480158
Lobby Gallery,http://www.ligi.ubc.ca/LobbyGallery.htm,Museum/Gallery,"6476 NW Marine Dr, Vancouver, BC, ",,Other,-123.259146,49.267681
Lumbermen's Arch,,Plaza/Park/Band Shell," , Vancouver, BC, ",,City of Vancouver,-123.131707,49.302981
Maclean Field House,http://vancouver.ca/parks-recreation-culture/urban-weavers-artists-and-scientist.aspx,Artist Studio,"710 Keefer St, Vancouver, BC, V6A 1Y5",Strathcona,Park Board/COV,-123.0884454,49.2788158
MakerLabs,www.makerlabs.ca,Workshop,"221 E 10th Av, Vancouver, BC, ",Mount Pleasant,Privately Owned,-123.0997391,49.2623075
Malaspina Printmakers Gallery,www.malaspinaprintmakers.com?,Museum/Gallery,"1555 Duranleau St, Vancouver, BC, V6H 3S3",Fairview,Government,-123.135784,49.271369
"Malkin Bowl, The",www.malkinbowl.com,Theatre,"610 Pipeline Rd, Vancouver, BC, V6G 3E2",,City of Vancouver,-123.133438,49.298848
Marion Scott Gallery,www.marionscottgallery.com,Museum/Gallery,"2423 Granville St, Vancouver, BC, V6H 3G5",Fairview,Privately Owned,-123.1386272,49.264079
Marpole-Oakridge Community Centre,http://www.marpoleoakridge.org/,Community Centre/Hall,"990 W 59th Av, Vancouver, BC, V6P 1X9 ",Marpole,Park Board/COV,-123.1274819,49.2144741
Mascall Dance,www.mascalldance.ca?,Rehearsal Studio,"1130 Jervis St, Vancouver, BC, V6E 2C7",West End,Privately Owned,-123.134145,49.283306
McBride field House,http://locomotoart.weebly.com/mcbride,Artist Studio,"3350 W 4th Av, Vancouver, BC, ",Kitsilano,Park Board/COV,-123.1786705,49.2680825
"Media Club, The",www.themediaclub.ca?,Bar/Lounge/Cabaret,"695 Cambie St, Vancouver, BC, V6B 2P1",Downtown,City of Vancouver,-123.1131599,49.2794398
Memorial South Park Field House,http://vancouver.ca/parks-recreation-culture/memorial-south-park-fieldhouse.aspx,Artist Studio,"5955 Ross St, Vancouver, BC, V5W 1T7",Sunset,Park Board/COV,-123.082685,49.2303947
"Mergatroid Building, The",http://www.mergatroid.ca/,Artist Studio,"975 Vernon Drive, Vancouver, BC, V6A 3P2",Strathcona,Privately Owned,-123.07867,49.276097
Metro Theatre,www.metrotheatre.org?,Theatre,"1370 Sw Marine Dr, Vancouver, BC, V6P 5Z9",Marpole,Privately Owned,-123.1375815,49.20363
Metro Theatre Workshop and Rehearsal Hall,,Rehearsal Studio,"8960 Oak St, Vancouver, BC, V6P 4B7",Marpole,Privately Owned,-123.1300261,49.203966
Michelle Sirois-Silver Textile Art Studio,michellesirois-silver.com,Artist Studio,"1610 Clark Dr, Vancouver, BC, ",Grandview-Woodland,Privately Owned,-123.077008,49.270306
Moberly Arts and Culture Centre,www.mysunset.net,Community Centre/Hall,"7646 Prince Albert St, Vancouver, BC, V5X 3Z4",Sunset,Park Board/COV,-123.087343,49.215192
Moberly Park Field House,http://vancouver.ca/parks-recreation-culture/moberly-park-fieldhouse.aspx,Artist Studio,"7646 Prince Albert, Vancouver, BC, V5X 3Z4",Sunset,Park Board/COV,-123.087095,49.215253
Monte Clark Gallery,www.monteclarkgallery.com,Museum/Gallery,"525 Great Northern Way, Vancouver, BC, V5T 1E1",Strathcona,Privately Owned,-123.0921743,49.26761
Morris and Helen Belkin Art Gallery,http://www.belkin.ubc.ca/,Museum/Gallery,"1825 Main Mall, Vancouver, BC, V6T 1Z2",,Other,-123.255944,49.2683878
Mount Pleasant Community Centre,http://www.mountpleasantcc.ca/,Community Centre/Hall,"1 Kingsway, Vancouver, BC, V5T 3H7",Mount Pleasant,Park Board/COV,-123.1000824,49.2641411
Museum of Vancouver,www.museumofvancouver.ca?,Museum/Gallery,"1100 Chestnut St, Vancouver, BC, V6J 3J9",Kitsilano,City of Vancouver,-123.144897,49.276365
Musqueam Cultural Education Resource Centre,http://www.musqueam.bc.ca/,Community Centre/Hall,"4000 Musqueam Av, Vancouver, BC, V6N 4C6",Dunbar-Southlands,Other,-123.1989191,49.2236866
New Leaf Editions,www.newleafeditions.com?,Workshop,"1370 Cartwright St, Vancouver, BC, V6H 3R7",Fairview,Privately Owned,-123.134665,49.269841
Norman Rothstein Theatre,www.normanrothsteintheatre.com?,Theatre,"950 W 41st Av, Vancouver, BC, V5Z 2N7",Oakridge,Privately Owned,-123.126011,49.233433
"O'Brian Centre for Vancouver Opera, The",www.vancouveropera.ca,Rehearsal Studio,"1945 Mclean Dr, Vancouver, BC, V5N 3J7",Grandview-Woodland,Privately Owned,-123.075658,49.267481
Octopus Studios,,Artist Studio,"393 Powell St, Vancouver, BC, V6A 1G5",Strathcona,Privately Owned,-123.0957216,49.2833651
Old Auditorium,http://www.music.ubc.ca/about-us/facilities/old-auditorium.html,Theatre,"6344 Memorial Rd, Vancouver, BC, V6T 1Z2",,Government,-123.255994,49.266904
On Main,www.onmaingallery.com?,Museum/Gallery,"200 E 20th Av, Vancouver, BC, V5V 1M1",Riley Park,Privately Owned,-123.10056,49.252773
Oppenheimer Park,,Plaza/Park/Band Shell," , Vancouver, BC, ",Strathcona,Park Board/COV,-123.094341,49.282643
Or Gallery,www.orgallery.org?,Museum/Gallery,"555 Hamilton St, Vancouver, BC, V6B 2R1",Downtown,Privately Owned,-123.112094,49.281406
Orpheum Annex,http://vancouver.caparks-recreation-culture/rent-the-orpheum-annex.aspx,Performance Space,"823 Seymour St, Vancouver, BC, V6B 5G1",Downtown,City of Vancouver,-123.1194108,49.2803528
Orpheum Theatre,https://vancouver.caparks-recreation-culture/the-orpheum.aspx,Theatre,"601 Smithe St, Vancouver, BC, V6B 5G1",Downtown,City of Vancouver,-123.12051,49.279881
Ouisi Bistro,http://www.ouisibistro.com/#events,Café/Restaurant,"3014 Granville St, Vancouver, BC, V6H 3J8",Fairview,Privately Owned,-123.1386441,49.258518
Our Town Café,,Café/Restaurant,"245 E Broadway, Vancouver, BC, V5T 1W4",Mount Pleasant,Privately Owned,-123.1001783,49.2631703
Pacific Cinematheque,http://www.thecinematheque.caabout,Cinema,"1131 Howe St, Vancouver, BC, V6Z 2L7",Downtown,City of Vancouver,-123.12627,49.278552
Pacific Theatre,www.pacifictheatre.org?,Theatre,"1440 W 12th Av, Vancouver, BC, V6H 1M8",Fairview,Privately Owned,-123.1372216,49.2607195
Pal Studio Theatre,http://www.palstudiotheatre.com/,Theatre,"581 Cardero St, Vancouver, BC, V6G 3L2",Downtown,Non-Profit,-123.1295134,49.2913154
Pandora Park  Fieldhouse,http://cfapp.vancouver.ca/parkfinder_wa/index.cfm?fuseaction=FAC.ParkDetails&park_id=57,Artist Studio,"2325 Franklin st, Vancouver, BC, V5L 1S1",Grandview-Woodland,Park Board/COV,-123.0581806,49.2825401
Pandora's Box Rehearsal Studios,http://www.pandorasboxstudios.com/,Film/Recording Studio,"1890 Pandora St, Vancouver, BC, V5L 1M5",Grandview-Woodland,Privately Owned,-123.0656267,49.2830062
Paneficio Studios,,Artist Studio,"800 Keefer St, Vancouver, BC, V6A 1Y7",Strathcona,Privately Owned,-123.0872408,49.2792244
Parker Street Studios,,Artist Studio,"1000 Parker St, Vancouver, BC, V6A 2H2",Strathcona,Privately Owned,-123.0803477,49.2753465
Patricia Hotel/ Pat's Pub,http://www.patspub.ca/,Bar/Lounge/Cabaret,"403 E Hastings St, Vancouver, BC, V6A 1P6",Strathcona,Privately Owned,-123.0952046,49.2815471
Pendulum Gallery,www.pendulumgallery.bc.ca?,Museum/Gallery,"885 W Georgia St, Vancouver, BC, V6C 3E8",Downtown,Privately Owned,-123.119963,49.283709
Peretz Centre for Secular Jewish Culture,http://www.peretz-centre.org/index.html,Community Centre/Hall,"6184 Ash St, Vancouver, BC, V5Z 3G9",Oakridge,Non-Profit,-123.117654,49.229111
Performance Works,www.performanceworks.ca,Performance Space,"1218 Cartwright St, Vancouver, BC, V6H 3R8",Fairview,Government,-123.132002,49.269212
Performing Arts Lodge (PAL),http://www.palvancouver.org/?q=pal-theatre,Artist Housing,"581 Cardero St, Vancouver, BC, V6G 3L2",Downtown,Non-Profit,-123.130114,49.29119
Peter Kiss Gallery,www.peterkiss.com,Museum/Gallery,"1327 Railspur Alley, Vancouver, BC, V6H 4G9",Fairview,Privately Owned,-123.1337947,49.2701374
Petley Jones Gallery,www.petleyjones.com?,Museum/Gallery,"554 W 6th Av, Vancouver, BC, V6J 1R2",Mount Pleasant,Privately Owned,-123.0917358,49.2652275
Playwrights Theatre Centre,www.playwrightstheatre.com?,Rehearsal Studio,"739 Gore Av, Vancouver, BC, V6A 2Z9",Strathcona,Privately Owned,-123.0970675,49.2781751
Plaza of Nations,www.plazaofnations.com?,Plaza/Park/Band Shell,"750 Pacific Blvd, Vancouver, BC, V6B 5E7",Downtown,Privately Owned,-123.110068,49.276031
PNE Amphitheatre,http://www.49st.com/venue/pne-amphitheatre#info,Plaza/Park/Band Shell,"2901 E Hastings St, Vancouver, BC, V5K 5J1",Hastings-Sunrise,City of Vancouver,-123.037295,49.28416
PNE Forum,www.pne.ca,Arena/Stadium,"2901 E Hastings St, Vancouver, BC, V5K 5J1",Hastings-Sunrise,City of Vancouver,-123.042992,49.282263
PNE Garden Auditorium,www.pne.ca,Educational Institution,"2901 E Hastings St, Vancouver, BC, V5K 5J1",Hastings-Sunrise,City of Vancouver,-123.041812,49.281965
PNE Pacific Coliseum,www.pne.ca,Arena/Stadium,"100 Renfrew St, Vancouver, BC, V5K 3N7",Hastings-Sunrise,City of Vancouver,-123.042747,49.285856
Polish Community Centre,http://polishcommunitycentre.com/,Community Centre/Hall,"4015 Fraser St, Vancouver, BC, V5V 4E6",Riley Park,Privately Owned,-123.0902312,49.2491288
Portside Studios,,Artist Studio,"150 Mclean Dr, Vancouver, BC, V5L 3L1",Grandview-Woodland,Privately Owned,-123.0740061,49.2833711
Praxis Centre for Screenwriting,http://www.praxisfilm.com/en/default.aspx,Film/Recording Studio,"149 W Hastings St, Vancouver, BC, V6B 1H4",Downtown,Other,-123.108643,49.28238
Princeton Pub,www.princetonpub.com?,Bar/Lounge/Cabaret,"1901 Powell St, Vancouver, BC, V5L 1J2",Grandview-Woodland,Privately Owned,-123.0650265,49.284993
Progress Lab 1422,www.pl1422.blogspot.com?,Rehearsal Studio,"1422 William, Vancouver, BC, V5L 2P7",Grandview-Woodland,Privately Owned,-123.0752583,49.2737909
Prophouse Café,www.PropHouseCafe.com,Café/Restaurant,"1636 Venables St, Vancouver, BC, V5L 2H2",Grandview-Woodland,Privately Owned,-123.0704947,49.2766423
Purple Thistle at Mergatroid Building,www.purplethistle.ca?,Artist Studio,"975 Vernon Drive, Vancouver, BC, V6A 3P2",Strathcona,Privately Owned,-123.0786643,49.2761045
Queen Elizabeth Park- Artist Residence,http://vancouver.ca/parks-recreation-culture/queen-elizabeth-park.aspx,Artist Studio,"4600 Cambie St, Vancouver, BC, V5Y 2M5",Riley Park,Park Board/COV,-123.111815,49.24203
Queen Elizabeth Theatre,http://vancouver.caparks-recreation-culture/queen-elizabeth-theatre.aspx,Theatre,"650 Hamilton St, Vancouver, BC, V6B 5N6",Downtown,City of Vancouver,-123.113401,49.28046
Queen Elizabeth Theatre Plaza,,Plaza/Park/Band Shell,"650 Hamilton St, Vancouver, BC, V6B 5N6",Downtown,City of Vancouver,-123.113393,49.27994
Railtown Studios,http://railtownstudios.com/,Artist Studio,"321 Railway St, Vancouver, BC, V6A 1A4",Strathcona,Privately Owned,-123.097645,49.2846363
"Railway Club, The",www.therailwayclub.com,Bar/Lounge/Cabaret,"579 Dunsmuir St, Vancouver, BC, V6B 1Y4",Downtown,Privately Owned,-123.1151754,49.2828775
Raw Canavas,http://www.rawcanvas.com/,Café/Restaurant,"1046 Hamilton St, Vancouver, BC, V6B 2R9",Downtown,Privately Owned,-123.1202261,49.2764562
Ray-Cam Co-Operative Center,http://vancouver.ca/parks-recreation-culture/ray-cam-co-operative-centre.aspx,Community Centre/Hall,"920 E Hastings St, Vancouver, BC, V6A 3T1",Strathcona,Park Board/COV,-123.0840893,49.28073616
Red Gate Arts,,Artist Studio,"855 E Hastings St, Vancouver, BC, V6A 1R8",Strathcona,Privately Owned,-123.0859896,49.2811222
Remington Gallery and Studio,https://www.facebook.com/Remington.Gallery.and.Studio,Museum/Gallery,"108 E Hastings St, Vancouver, BC, V6A 4J1",Downtown,,-123.1019396,49.281336
Renegade Studios Main Street,www.renegadeproductions.net,Rehearsal Studio,"125 E 2nd Av, Vancouver, BC, V5T 1B4",Mount Pleasant,Privately Owned,-123.1017261,49.2692732
Renfrew Park Community Centre,http://www.renfrewcc.com/,Community Centre/Hall,"2929 E 22nd Av, Vancouver, BC, V5M 2Y3  ",Renfrew-Collingwood,Park Board/COV,-123.0429581,49.25242491
Rennie collection at Wing Sang,,Museum/Gallery,"51 E Pender St, Vancouver, BC, V6A 1S9",Downtown,Privately Owned,-123.1031317,49.2806995
"Rhythm Room, The",www.s2sproductions.com,Rehearsal Studio,"8713 Cambie St, Vancouver, BC, ",Marpole,Privately Owned,-123.117986,49.206403
"Rickshaw Theatre, The",www.liveatrickshaw.com,Theatre,"254 E Hastings St, Vancouver, BC, V6A 1P1",Strathcona,Privately Owned,-123.0983094,49.281272
"Rio Theatre, The",www.riotheatre.ca?,Cinema,"1660 E Broadway, Vancouver, BC, V5N 1W1",Kensington-Cedar Cottage,Privately Owned,-123.0704852,49.2620042
Roedde House,www.roeddehouse.orgen/home?,Museum/Gallery,"1415 Barclay St, Vancouver, BC, V6G 1J6",West End,City of Vancouver,-123.132187,49.286863
Rogers Arena,http://rogersarena.com/,Arena/Stadium,"800 Griffiths Way, Vancouver, BC, V6B 6G1",Downtown,Privately Owned,-123.109143,49.277049
Roundhouse Community Centre,www.roundhouse.ca?,Community Centre/Hall,"181 Roundhouse Mews, Vancouver, BC, V6Z 2W3",Downtown,City of Vancouver,-123.121747,49.273308
Roy Barnett Recital Hall,http://www.music.ubc.ca/about-us/facilities/roy-barnett-recital-hall.html,Performance Space,"6361 Memorial Rd, Vancouver, BC, V6T 1Z2",,Other,-123.256613,49.267411
Russian Community Centre Of Vancouver,www.russiancentrevancouver.org,Community Centre/Hall,"2114 W 4th Av, Vancouver, BC, V6K 1N6",Kitsilano,Privately Owned,-123.1531395,49.2680684
Russian Hall,,Community Centre/Hall,"600 Campbell Av, Vancouver, BC, V6A 3K1",Strathcona,Non-Profit,-123.084646,49.27895
Ryerson United Church,www.ryersonunited.ca,Place of Worship,"2195 W 45th Av, Vancouver, BC, V6M  2J2",Kerrisdale,Other,-123.1585257,49.2309378
Sarah Mclachlan School Of Music,www.sarahschoolofmusic.com?,Educational Institution,"138 E 7th Av, Vancouver, BC, V5T 1M6",Mount Pleasant,Privately Owned,-123.101954,49.264581
Satellite Gallery,www.satellitegallery.ca,Museum/Gallery,"560 Seymour St, Vancouver, BC, V6B 3J5",Downtown,Privately Owned,-123.114585,49.283183
Science World At Telus World Of Science,www.scienceworld.ca?,Garden/Aquarium/Science Centre,"1455 Quebec St, Vancouver, BC, V6A 3Z7",Downtown,Government,-123.103652,49.273743
Scottish Cultural Centre,www.scottishculturalcentre.com?,Community Centre/Hall,"8886 Hudson St, Vancouver, BC, V6P 4N2",Marpole,Non-Profit,-123.134666,49.204487
Secret Lantern Society,,Workshop,"328 -B Industrial Av, Vancouver, BC, ",Strathcona,Privately Owned,-123.0965625,49.2695868
Slocan Park Field House,http://vancouver.ca/parks-recreation-culture/slocan-park-fieldhouse.aspx,Artist Studio,"2750 E 29th Av, Vancouver, BC, V5R 1V6",Renfrew-Collingwood,Park Board/COV,-123.0483891,49.244559
Soundhouse Studios,http://www.soundhousestudios.com/,Film/Recording Studio,"33 W 8th Av, Vancouver, BC, V5Y 1M8",Mount Pleasant,Privately Owned,-123.1057281,49.2640305
Spirit Wrestler Gallery,www.spiritwrestler.com,Museum/Gallery,"47 Water St, Vancouver, BC, V6B 1A1",Downtown,Privately Owned,-123.105348,49.2837331
St James Community Square,www.sjcommunitysquare.org,Performance Space,"3214 W 10th Av, Vancouver, BC, V6K 2L2",Kitsilano,Privately Owned,-123.1765215,49.2630518
St. Andrews-Wesley United Church,www.standrewswesleychurch.bc.ca?,Place of Worship,"1012 Nelson St, Vancouver, BC, V6E 1H8",West End,Other,-123.1266077,49.2815242
St. James' Anglican Church,www.stjames.bc.ca,Place of Worship,"303 E Cordova St, Vancouver, BC, V6A 1L4",Strathcona,Other,-123.0971846,49.2825039
Strathcona Community Centre,https://vancouver.ca/parks-recreation-culture/strathcona-community-centre.aspx,Community Centre/Hall,"601 Keefer St, Vancouver, BC, V6A 3V8",Strathcona,Park Board/COV,-123.0915462,49.27977979
Strathcona Park Field House,http://vancouver.ca/parks-recreation-culture/strathcona-park-fieldhouse.aspx,Artist Studio,"857 Malkin Av, Vancouver, BC, V6A 2K5",Strathcona,Park Board/COV,-123.083385,49.2739359
Studio 1398,www.giculturalsociety.org/studio1398/,Rehearsal Studio,"1398 Cartwright St, Vancouver, BC, V6H 3R8",Fairview,Government,-123.135137,49.269883
Studio 16/Theatre La Seizieme,www.seizieme.ca?,Rehearsal Studio,"1555 W 7th Av, Vancouver, BC, V6J 1S1",Fairview,Privately Owned,-123.140093,49.2655999
Sunset Community Centre,http://www.mysunset.net/,Community Centre/Hall,"6810 Main St, Vancouver, BC, V5X 0A1 ",Sunset,Park Board/COV,-123.1006104,49.22286659
Taiwanese Canadian Cultural Society,www.tccs.ca,Community Centre/Hall,"8853 Selkirk St, Vancouver, BC, V6P 4J6",Marpole,Privately Owned,-123.1338135,49.2047023
Tangent Café,http://tangentcafe.ca/,Café/Restaurant,"2095 Commercial Dr, Vancouver, BC, V5N 4A9",Grandview-Woodland,Privately Owned,-123.0698073,49.266022
Teck Gallery,https://www.sfu.ca/galleries/teck-gallery.html,Museum/Gallery,"515 W Hastings St, Vancouver, BC, V6B 0B2",Downtown,Privately Owned,-123.1119735,49.2841655
The Apartment,http://theapt.ca/filter/Exhibition,Museum/Gallery,"119B E Pender St, Vancouver, BC, V6A 1T6",Downtown,Privately Owned,-123.1015866,49.2804859
Thunderbird Community Centre,http://vancouver.ca/parks-recreation-culture/thunderbird-community-centre.aspx,Community Centre/Hall,"2311 Cassiar St, Vancouver, BC, V5M 3X3",Hastings-Sunrise,Park Board/COV,-123.0321037,49.26360784
Tom Lee Music Recital Hall,www.tomleemusic.ca,Performance Space,"929 Granville St, Vancouver, BC, V6Z 1L3",Downtown,Privately Owned,-123.1224555,49.2800125
Tracey Lawrence Gallery,,Museum/Gallery,"1531 W 4th Av, Vancouver, BC, V6J 1L6",Fairview,Privately Owned,-123.139461,49.267975
Trees Organic Coffee House,http://www.treescoffee.com/,Café/Restaurant,"450 Granville St, Vancouver, BC, V6C 1V4",Downtown,Privately Owned,-123.11431,49.284923
Trench Gallery,www.trenchgallery.com,Museum/Gallery,"148 Alexander St, Vancouver, BC, V6A 1B5",Downtown,Privately Owned,-123.1010921,49.2839469
Trout Lake Community Centre,https://vancouver.ca/parks-recreation-culture/trout-lake-community-centre.aspx,Community Centre/Hall,"3360 Victoria Dr, Vancouver, BC, V5N 4M4",Kensington-Cedar Cottage,Park Board/COV,-123.065438,49.255325
UBC Museum of Anthropology,http://moa.ubc.ca/,Museum/Gallery,"6393 NW Marine Dr, Vancouver, BC, V6T 1Z2",,Other,-123.259174,49.26907
UBC School of Music,www.music.ubc.ca,Educational Institution,"6361 Memorial Rd, Vancouver, BC, V6T 1Z2",,Other,-123.256757,49.267358
UBC Thunderbird Arena,http://thunderbirdarena.ubc.ca/,Arena/Stadium,"2555 Wesbrook Mall, Vancouver, BC, V6T 1Z3",,Government,-123.2413205,49.2612385
Unit/Pitt Projects,www.helenpittgallery.org,Museum/Gallery,"236 E Pender St, Vancouver, BC, V6A 1T7",Strathcona,Privately Owned,-123.098813,49.280103
Uno Langmann Limited Fine Arts,www.langmann.com,Museum/Gallery,"2117 Granville St, Vancouver, BC, V6H 3E9",Fairview,Privately Owned,-123.1388698,49.2666423
Uzume Taiko Drum Group Society,www.uzume.com?,Rehearsal Studio,"1254 Frances St, Vancouver, BC, V6A 1Z5",Strathcona,Privately Owned,-123.0779834,49.279451
Vag Plaza North,,Plaza/Park/Band Shell," , Vancouver, BC, ",Downtown,City of Vancouver,-123.119848,49.283113
Van Dusen Botanical Gardens,http://vandusengarden.org/,Garden/Aquarium/Science Centre,"5251 Oak St, Vancouver, BC, V6M 4H1",Shaughnessy,Park Board/COV,-123.128627,49.238472
Vancity Theatre,http://www.viff.org/theatre/facility-info,Cinema,"1181 Seymour St, Vancouver, BC, V6B 3M7",Downtown,Privately Owned,-123.124732,49.276974
Vancouver Aboriginal Friendship Centre,http://www.vafcs.org/,Community Centre/Hall,"1607 E Hastings St, Vancouver, BC, V5L 1S9",Grandview-Woodland,Other,-123.0724904,49.2813439
Vancouver Academy Of Music,http://vancouveracademyofmusic.com,Educational Institution,"1270 Chestnut St, Vancouver, BC, V6J 4R9",Kitsilano,City of Vancouver,-123.144548,49.274884
Vancouver Access Artist Run Centre,www.accessgallery.ca,Museum/Gallery,"222 E Georgia St, Vancouver, BC, V6A 1Z7",Strathcona,Privately Owned,-123.098757,49.278453
Vancouver Adapted Music,www.vams.org/,Film/Recording Studio,"4225 Laurel St, Vancouver, BC, V5Z 2G9",South Cambie,Privately Owned,-123.1248217,49.2476977
Vancouver Aquarium,www.vanaqua.org?,Garden/Aquarium/Science Centre,"845 Avison Way, Vancouver, BC, V6G 3E2",,City of Vancouver,-123.130997,49.30067
Vancouver Art Gallery,www.vanartgallery.bc.ca,Museum/Gallery,"750 Hornby St, Vancouver, BC, V6Z 2H7",Downtown,Government,-123.120932,49.283158
Vancouver Art Gallery Offsite,http://www.vanartgallery.bc.ca/the_exhibitions/public_art.html,Museum/Gallery,"1100 W Georgia St, Vancouver, BC, V6E 0A8",West End,City of Vancouver,-123.124298,49.286205
Vancouver Art Therapy Institute (VATI),http://www.vati.bc.ca/,Educational Institution,"1575 Johnston St, Vancouver, BC, V6H 3R9",Fairview,,-123.1349366,49.2718984
Vancouver Burlesque Centre,http://www.vancouverburlesquecentre.ca/,Rehearsal Studio,"124 W 6th Av, Vancouver, BC, V5Y 1K6",Mount Pleasant,Privately Owned,-123.1075911,49.2655855
Vancouver Community Laboratory,http://vancommunitylab.com/,Workshop,"1907 Triumph St, Vancouver, BC, V5L 1K6",Grandview-Woodland,,-123.0652956,49.2841727
Vancouver Contemporary Art Gallery,www.contemporaryartgallery.ca?,Museum/Gallery,"555 Nelson St, Vancouver, BC, V6B 6R5",Downtown,Privately Owned,-123.121183,49.278238
Vancouver Co-Operative Radio,www.coopradio.org?,Film/Recording Studio,"360 Columbia St, Vancouver, BC, V6A 4J1",Downtown,Non-Profit,-123.102125,49.281763
Vancouver East Cultural Centre- Historic Theatre,www.thecultch.com?,Theatre,"1895 Venables St, Vancouver, BC, V5L 2H6",Grandview-Woodland,City of Vancouver,-123.065797,49.276674
Vancouver East Cultural Centre- Vancity Culture Lab,www.thecultch.com?,Theatre,"1895 Venables St, Vancouver, BC, V5L 2H6",Grandview-Woodland,City of Vancouver,-123.065816,49.276676
Vancouver Holocaust Education Centre,www.vhec.org?,Museum/Gallery,"950 W 41st Av, Vancouver, BC, V5Z 2N7",Oakridge,Privately Owned,-123.126013,49.233442
Vancouver Japanese Language School and Japanese Hall,http://www.vjls-jh.com,Community Centre/Hall,"475 Alexander St, Vancouver, BC, V6A 1C6",Strathcona,Non-Profit,-123.093733,49.284251
Vancouver Maritime Museum,www.vancouvermaritimemuseum.com,Museum/Gallery,"1905 Ogden Av, Vancouver, BC, V6J 1A3",Kitsilano,City of Vancouver,-123.147587,49.277465
Vancouver Photo Workshop,http://www.vancouverphotoworkshops.com/,Educational Institution,"14 W 7th Av, Vancouver, BC, V5Y 1L6",Mount Pleasant,Privately Owned,-123.1053882,49.2647093
Vancouver Playhouse Theatre,http://vancouver.caparks-recreation-culture/vancouver-playhouse.aspx,Theatre,"600 Hamilton St, Vancouver, BC, V6B 6A1",Downtown,City of Vancouver,-123.112328,49.2808
Vancouver Police Museum,www.vancouverpolicemuseum.ca?,Museum/Gallery,"240 E Cordova St, Vancouver, BC, V6A 1L3",Strathcona,City of Vancouver,-123.0987999,49.282247
Vancouver Public Library,www.vpl.ca,Library/Archives,"350 W Georgia St, Vancouver, BC, V6B 6B1",Downtown,City of Vancouver,-123.1151119,49.2804357
Vancouver Symphony Orchestra School Of Music,www.vsoschoolofmusic.ca?,Educational Institution,"843 Seymour St, Vancouver, BC, V6B 3L4",Downtown,City of Vancouver,-123.119768,49.280221
Vancouver Symphony Orchestra School of Music-Recital Hall (Pyatt Hall),www.vsoschoolofmusic.ca?,Performance Space,"843 Seymour St, Vancouver, BC, V6B 3L4",Downtown,City of Vancouver,-123.119792,49.280207
Vancouver Tap Dance Society,www.vantapdance.com?,Educational Institution,"2775 E Hastings St, Vancouver, BC, V5K 1Z8",Hastings-Sunrise,Non-Profit,-123.047414,49.281396
Vanier Park,,Plaza/Park/Band Shell,"1000 Chestnut St, Vancouver, BC, V6J 3J9",Kitsilano,City of Vancouver,-123.146124,49.276777
Venue,www.venuelive.ca?,Bar/Lounge/Cabaret,"881 Granville St, Vancouver, BC, V6Z 1K7",Downtown,Privately Owned,-123.1211246,49.2805411
Visual Arts Studio-SFU School for the Contemporary Arts,http://www.sfu.ca/sca/index.php/programs/visual-arts,Educational Institution,"611 Alexander St, Vancouver, BC, V6A 1E1",Strathcona,Privately Owned,-123.0915178,49.2844372
Vivo Media Arts Centre,www.vivomediaarts.com,Film/Recording Studio,"1965 Main St, Vancouver, BC, V5T 3C1",Mount Pleasant,Privately Owned,-123.101242,49.267731
Vogue Theatre,www.voguetheatre.com,Theatre,"918 Granville St, Vancouver, BC, V6Z 1L2",Downtown,Privately Owned,-123.1218259,49.2799671
Wall Centre Plaza,,Plaza/Park/Band Shell,"1088 Burrard St, Vancouver, BC, V6Z 2R9",Downtown,Privately Owned,-123.1265368,49.2801175
Waterfront Theatre,www.waterfronttheatre.ca?,Theatre,"1412 Cartwright St, Vancouver, BC, V6H 3R7",Fairview,Government,-123.135508,49.270119
West 6th Artists Studios,,Artist Studio,"1571 W 6th Av, Vancouver, BC, V6J 1R1",Fairview,City of Vancouver,-123.1401944,49.266238
West 6Th Artists Studios,,Artist Studio,"1573 W 6th Av, Vancouver, BC, V6J 1R1",Fairview,City of Vancouver,-123.1400604,49.2663536
West End Community Centre,https://vancouver.ca/parks-recreation-culture/west-end-community-centre.aspx,Community Centre/Hall,"870 Denman St, Vancouver, BC, V6G 2L8",West End,Park Board/COV,-123.1360738,49.28991296
Western Front Artist Studio,,Artist Studio,"303 E 8th Av, Vancouver, BC, V5T 1S1",Mount Pleasant,Privately Owned,-123.0986899,49.2639078
Western Front Gallery,www.front.bc.ca?,Museum/Gallery,"303 E 8th Av, Vancouver, BC, V5T 1S1",Mount Pleasant,Privately Owned,-123.098654,49.263916
Western Front -Luxe Hall,,Performance Space,"303 E 8th Av, Vancouver, BC, V5T 1S1",Mount Pleasant,Privately Owned,-123.098716,49.263894
William Clark Studios,,Artist Studio,"1310 William St, Vancouver, BC, V5L 2P5",Grandview-Woodland,Privately Owned,-123.0771637,49.2740112
Winsor Gallery,www.winsorgallery.com,Museum/Gallery,"258 E 1st Ave, Vancouver, BC, V5T 1A6",Strathcona,Privately Owned,-123.0984496,49.2689553
Wise Club Hall,www.wisehall.ca,Performance Space,"1882 Adanac St, Vancouver, BC, V5L 2E2",Grandview-Woodland,Non-Profit,-123.0660915,49.2772414
Woodward's Atrium,,Performance Space,"111 W Hastings St, Vancouver, BC, V6B 1H4",Downtown,,-123.107579,49.282541
Writers' Exchange,,Workshop,"881 E Hastings St, Vancouver, BC, V6A 1R8",Strathcona,Privately Owned,-123.0853822,49.2811097
York Theatre,https://thecultch.com/locations/york-theatre/,Theatre,"639 Commercial Dr, Vancouver, BC, V5L 2W2",Grandview-Woodland,City of Vancouver,-123.0707458,49.2786795
Yuk Yuk's Comedy Club,http://www.yukyuks.com,Performance Space,"2837 Cambie St, Vancouver, BC, V5Z 3Y8",Fairview,Privately Owned,-123.1151069,49.2600654